HORIZONS-3E             
1 43633U 18074B   26155.61572255 -.00000019  00000+0  00000+0 0  9990
2 43633   0.0181 149.5538 0000751 123.5060  10.6575  1.00270803 28214
AEHF-4 (USA 288)        
1 43651U 18079A   26155.55176954 -.00000263  00000+0  00000+0 0  9995
2 43651   1.4287   2.8767 0060782 357.2899  23.7895  1.00278164 28170
BEIDOU-3 G1             
1 43683U 18085A   26155.81066075 -.00000097  00000+0  00000+0 0  9993
2 43683   2.8370  97.7197 0008567 345.6614 261.6920  1.00272094 27933
GSAT-29                 
1 43698U 18089A   26155.76437597  .00000097  00000+0  00000+0 0  9997
2 43698   0.0398 110.2107 0003769 320.9817 152.2270  1.00270762 27664
ES'HAIL 2               
1 43700U 18090A   26155.74019446  .00000156  00000+0  00000+0 0  9996
2 43700   0.0177   0.9674 0001949 105.4242  79.0501  1.00272777 27552
GEO-KOMPSAT-2A          
1 43823U 18100A   26155.72968677 -.00000332  00000+0  00000+0 0  9998
2 43823   0.0505 138.9461 0002315 305.7918 199.3806  1.00269705 27508
GSAT-11                 
1 43824U 18100B   26155.57976300 -.00000065  00000+0  00000+0 0  9997
2 43824   0.0586 258.0307 0008034 186.5893  91.1288  1.00271882 27357
GSAT-7A                 
1 43864U 18105A   26155.64882858  .00000038  00000+0  00000+0 0  9997
2 43864   0.0259 258.3664 0002559 156.3530 134.7808  1.00271392 27321
COSMOS 2533             
1 43867U 18107A   26155.79280734 -.00000027  00000+0  00000+0 0  9992
2 43867   0.0498 100.7474 0000898 342.9298 164.9672  1.00273250 27325
TJS-3                   
1 43874U 18110A   26154.66762008 -.00000204  00000+0  00000+0 0  9995
2 43874   2.5099  80.6531 0001866  66.8699 133.1554  1.00274849 27287
ZHONGXING-2D            
1 43920U 19001A   26155.85322466 -.00000325  00000+0  00000+0 0  9993
2 43920   0.0432  81.7576 0000912 289.9216 318.8040  1.00271173 53950
HELLAS-SAT 4 & SGS-1    
1 44034U 19007A   26155.75106955  .00000165  00000+0  00000+0 0  9999
2 44034   0.0671 129.9278 0005069   7.6969  64.9767  1.00273988 27248
GSAT-31                 
1 44035U 19007B   26155.75883791  .00000137  00000+0  00000+0 0  9999
2 44035   0.0155 261.1448 0001699 106.3421 206.7639  1.00273067 26846
NUSANTARA SATU          
1 44048U 19009A   26155.60461330 -.00000222  00000+0  00000+0 0  9996
2 44048   0.0430 145.0808 0004387 325.5419 146.1062  1.00270424 26644
ZHONGXING-6C            
1 44067U 19012A   26155.85322466 -.00000323  00000+0  00000+0 0  9996
2 44067   0.1343  80.3777 0013514 329.6242 280.8880  1.00270733 26610
WGS 10 (USA 291)        
1 44071U 19014A   26155.85585671  .00000058  00000+0  00000+0 0  9996
2 44071   0.0171   0.8525 0000408  29.9808 230.8839  1.00272530 26499
TIANLIAN 2-01           
1 44076U 19017A   26155.08124333 -.00000095  00000+0  00000+0 0  9995
2 44076   0.5059  83.1240 0001030 355.2450 280.4368  1.00271760 26517
ARABSAT-6A              
1 44186U 19021A   26155.74439634  .00000166  00000+0  00000+0 0  9996
2 44186   0.0517   8.6752 0000977  33.9974 148.9900  1.00272750 26030
BEIDOU-3 IGSO-1         
1 44204U 19023A   26155.58793340 -.00000211  00000+0  00000+0 0  9990
2 44204  58.6768  37.7810 0025471 225.7549 318.3782  1.00295778  7081
BEIDOU-2 G8             
1 44231U 19027A   26155.80754074 -.00000235  00000+0  00000+0 0  9996
2 44231   1.6269  74.4905 0010740 284.3852 329.5661  1.00275855 25959
YAMAL 601               
1 44307U 19031A   26155.87964153  .00000132  00000+0  00000+0 0  9998
2 44307   0.0176 357.6753 0002572  81.6044 179.7157  1.00272819 25801
AT&T T-16               
1 44333U 19034A   26155.61643389 -.00000103  00000+0  00000+0 0  9996
2 44333   0.0235  61.1815 0000430 248.7268  64.2148  1.00269963 25508
EUTELSAT 7C             
1 44334U 19034B   26155.63773520  .00000061  00000+0  00000+0 0  9992
2 44334   0.0753 174.9193 0003316 243.1852  71.5653  1.00273241  6718
BEIDOU-3 IGSO-2         
1 44337U 19035A   26155.89438184 -.00000070  00000+0  00000+0 0  9999
2 44337  55.2445 158.9697 0039725 216.0101 320.2492  1.00270541 25548
COSMOS 2539             
1 44457U 19048A   26155.78133022  .00000094  00000+0  00000+0 0  9992
2 44457   0.0369  91.1099 0000621 354.7197 100.6836  1.00275032 25100
EDRS-C                  
1 44475U 19049A   26155.66461997 -.00000250  00000+0  00000+0 0  9990
2 44475   0.0119 164.0677 0001274 297.3901 173.4191  1.00271075 25087
INTELSAT 39 (IS-39)     
1 44476U 19049B   26155.64258479  .00000045  00000+0  00000+0 0  9999
2 44476   0.0188 328.9935 0000583 359.4045 217.9725  1.00271423 25009
AMOS-17                 
1 44479U 19050A   26155.73565807  .00000122  00000+0  00000+0 0  9996
2 44479   0.0228 310.4425 0001795 152.3170  72.2553  1.00273643 25065
AEHF-5 (USA 292)        
1 44481U 19051A   26155.73135045 -.00000246  00000+0  00000+0 0  9995
2 44481   1.4648 335.2099 0067147   1.3166 273.0002  1.00269402 25138
EUTELSAT 5 WEST B       
1 44624U 19067A   26155.63539519 -.00000030  00000+0  00000+0 0  9995
2 44624   0.0655 338.4892 0003355  95.7307  42.6086  1.00272089 24317
TJS-4                   
1 44637U 19070A   26155.79549402 -.00000158  00000+0  00000+0 0  9993
2 44637   0.0220 276.7744 0005136 122.3833 223.9952  1.00271304 24415
BEIDOU-3 IGSO-3         
1 44709U 19073A   26136.81046384 -.00000217  00000+0  00000+0 0  9995
2 44709  54.8566 281.2355 0042953 189.4588 170.3676  1.00246251 24144
