OBJECT_NAME,OBJECT_ID,EPOCH,MEAN_MOTION,ECCENTRICITY,INCLINATION,RA_OF_ASC_NODE,ARG_OF_PERICENTER,MEAN_ANOMALY,EPHEMERIS_TYPE,CLASSIFICATION_TYPE,NORAD_CAT_ID,ELEMENT_SET_NO,REV_AT_EPOCH,BSTAR,MEAN_MOTION_DOT,MEAN_MOTION_DDOT
HORIZONS-3E,2018-074B,2026-06-04T14:46:38.428320,1.00270803,.0000751,0.0181,149.5538,123.5060,10.6575,0,U,43633,999,2821,0,-.19E-6,0
AEHF-4 (USA 288),2018-079A,2026-06-04T13:14:32.888256,1.00278164,.0060782,1.4287,2.8767,357.2899,23.7895,0,U,43651,999,2817,0,-.263E-5,0
BEIDOU-3 G1,2018-085A,2026-06-04T19:27:21.088800,1.00272094,.0008567,2.8370,97.7197,345.6614,261.6920,0,U,43683,999,2793,0,-.97E-6,0
GSAT-29,2018-089A,2026-06-04T18:20:42.083808,1.00270762,.0003769,0.0398,110.2107,320.9817,152.2270,0,U,43698,999,2766,0,.97E-6,0
ES'HAIL 2,2018-090A,2026-06-04T17:45:52.801344,1.00272777,.0001949,0.0177,0.9674,105.4242,79.0501,0,U,43700,999,2755,0,.156E-5,0
GEO-KOMPSAT-2A,2018-100A,2026-06-04T17:30:44.936928,1.00269705,.0002315,0.0505,138.9461,305.7918,199.3806,0,U,43823,999,2750,0,-.332E-5,0
GSAT-11,2018-100B,2026-06-04T13:54:51.523200,1.00271882,.0008034,0.0586,258.0307,186.5893,91.1288,0,U,43824,999,2735,0,-.65E-6,0
GSAT-7A,2018-105A,2026-06-04T15:34:18.789312,1.00271392,.0002559,0.0259,258.3664,156.3530,134.7808,0,U,43864,999,2732,0,.38E-6,0
COSMOS 2533,2018-107A,2026-06-04T19:01:38.554176,1.00273250,.0000898,0.0498,100.7474,342.9298,164.9672,0,U,43867,999,2732,0,-.27E-6,0
TJS-3,2018-110A,2026-06-03T16:01:22.374912,1.00274849,.0001866,2.5099,80.6531,66.8699,133.1554,0,U,43874,999,2728,0,-.204E-5,0
ZHONGXING-2D,2019-001A,2026-06-04T20:28:38.610624,1.00271173,.0000912,0.0432,81.7576,289.9216,318.8040,0,U,43920,999,5395,0,-.325E-5,0
HELLAS-SAT 4 & SGS-1,2019-007A,2026-06-04T18:01:32.409120,1.00273988,.0005069,0.0671,129.9278,7.6969,64.9767,0,U,44034,999,2724,0,.165E-5,0
GSAT-31,2019-007B,2026-06-04T18:12:43.595424,1.00273067,.0001699,0.0155,261.1448,106.3421,206.7639,0,U,44035,999,2684,0,.137E-5,0
NUSANTARA SATU,2019-009A,2026-06-04T14:30:38.589120,1.00270424,.0004387,0.0430,145.0808,325.5419,146.1062,0,U,44048,999,2664,0,-.222E-5,0
ZHONGXING-6C,2019-012A,2026-06-04T20:28:38.610624,1.00270733,.0013514,0.1343,80.3777,329.6242,280.8880,0,U,44067,999,2661,0,-.323E-5,0
WGS 10 (USA 291),2019-014A,2026-06-04T20:32:26.019744,1.00272530,.0000408,0.0171,0.8525,29.9808,230.8839,0,U,44071,999,2649,0,.58E-6,0
TIANLIAN 2-01,2019-017A,2026-06-04T01:56:59.423712,1.00271760,.00010308,0.5059,83.1240,355.2450,280.4368,0,U,44076,999,2651,0,-.95E-6,0
ARABSAT-6A,2019-021A,2026-06-04T17:51:55.843776,1.00272750,.0000977,0.0517,8.6752,33.9974,148.9900,0,U,44186,999,2603,0,.166E-5,0
BEIDOU-3 IGSO-1,2019-023A,2026-06-04T14:06:37.445760,1.00295778,.0025471,58.6768,37.7810,225.7549,318.3782,0,U,44204,999,708,0,-.211E-5,0
BEIDOU-2 G8,2019-027A,2026-06-04T19:22:51.519936,1.00275855,.001074,1.6269,74.4905,284.3852,329.5661,0,U,44231,999,2595,0,-.235E-5,0
YAMAL 601,2019-031A,2026-06-04T21:06:41.028192,1.00272819,.0002572,0.0176,357.6753,81.6044,179.7157,0,U,44307,999,2580,0,.132E-5,0
AT&T T-16,2019-034A,2026-06-04T14:47:39.888096,1.00269963,.000043,0.0235,61.1815,248.7268,64.2148,0,U,44333,999,2550,0,-.103E-5,0
EUTELSAT 7C,2019-034B,2026-06-04T15:18:20.321280,1.00273241,.0003316,0.0753,174.9193,243.1852,71.5653,0,U,44334,999,671,0,.61E-6,0
BEIDOU-3 IGSO-2,2019-035A,2026-06-04T21:27:54.590976,1.00270541,.0039725,55.2445,158.9697,216.0101,320.2492,0,U,44337,999,2554,0,-.7E-6,0
COSMOS 2539,2019-048A,2026-06-04T18:45:06.931008,1.00275032,.0000621,0.0369,91.1099,354.7197,100.6836,0,U,44457,999,2510,0,.94E-6,0
EDRS-C,2019-049A,2026-06-04T15:57:03.165408,1.00271075,.0001274,0.0119,164.0677,297.3901,173.4191,0,U,44475,999,2508,0,-.25E-5,0
INTELSAT 39 (IS-39),2019-049B,2026-06-04T15:25:19.325856,1.00271423,.0000583,0.0188,328.9935,359.4045,217.9725,0,U,44476,999,2500,0,.45E-6,0
AMOS-17,2019-050A,2026-06-04T17:39:20.857248,1.00273643,.0001795,0.0228,310.4425,152.3170,72.2553,0,U,44479,999,2506,0,.122E-5,0
AEHF-5 (USA 292),2019-051A,2026-06-04T17:33:08.678880,1.00269402,.0067147,1.4648,335.2099,1.3166,273.0002,0,U,44481,999,2513,0,-.246E-5,0
EUTELSAT 5 WEST B,2019-067A,2026-06-04T15:14:58.144416,1.00272089,.0003355,0.0655,338.4892,95.7307,42.6086,0,U,44624,999,2431,0,-.3E-6,0
TJS-4,2019-070A,2026-06-04T19:05:30.683328,1.00271304,.0005136,0.0220,276.7744,122.3833,223.9952,0,U,44637,999,2441,0,-.158E-5,0
BEIDOU-3 IGSO-3,2019-073A,2026-05-16T19:27:04.075776,1.00246251,.0042953,54.8566,281.2355,189.4588,170.3676,0,U,44709,999,2414,0,-.217E-5,0
